[{"OBJECT_NAME":"STARLINK-30214","OBJECT_ID":"2023-102H","EPOCH":"2026-03-09T22:00:01.999584","MEAN_MOTION":15.16864915,"ECCENTRICITY":0.00019718,"INCLINATION":42.9997,"RA_OF_ASC_NODE":246.4866,"ARG_OF_PERICENTER":280.5737,"MEAN_ANOMALY":98.4796,"EPHEMERIS_TYPE":0,"CLASSIFICATION_TYPE":"U","NORAD_CAT_ID":57411,"ELEMENT_SET_NO":999,"REV_AT_EPOCH":578,"BSTAR":0.0062663792,"MEAN_MOTION_DOT":0.00127643,"MEAN_MOTION_DDOT":0},{"OBJECT_NAME":"FLOCK 4H-28","OBJECT_ID":"2025-276BT","EPOCH":"2026-03-09T15:22:11.244288","MEAN_MOTION":15.18390524,"ECCENTRICITY":0.0004562,"INCLINATION":97.4246,"RA_OF_ASC_NODE":143.8079,"ARG_OF_PERICENTER":17.8651,"MEAN_ANOMALY":342.2742,"EPHEMERIS_TYPE":0,"CLASSIFICATION_TYPE":"U","NORAD_CAT_ID":66731,"ELEMENT_SET_NO":999,"REV_AT_EPOCH":1530,"BSTAR":0.00038299,"MEAN_MOTION_DOT":7.812e-5,"MEAN_MOTION_DDOT":0}]
